GLOBALSTAR M066         
1 32265U 07048C   25183.66932185 -.00000085  00000+0  76106-4 0  9993
2 32265  51.9571 341.1922 0003341  21.5549  61.7415 12.29985525817207
GLOBALSTAR M079         
1 37188U 10054A   25183.93867736 -.00000095  00000+0  49836-4 0  9993
2 37188  52.0040  91.8352 0000707  28.3255  52.2029 12.62265284678444
GLOBALSTAR M074         
1 37189U 10054B   25183.96555997 -.00000096  00000+0  42314-4 0  9995
2 37189  52.0024  91.0758 0000793  49.5741  31.4693 12.62257007679057
GLOBALSTAR M076         
1 37190U 10054C   25183.45730618 -.00000096  00000+0  44060-4 0  9996
2 37190  52.0032  92.7934 0000861  39.9145 131.4506 12.62263367678700
GLOBALSTAR M077         
1 37191U 10054D   25183.88487368 -.00000095  00000+0  49895-4 0  9995
2 37191  52.0083  48.3532 0000841  69.6225 305.8578 12.62268790679134
